{"type":"FeatureCollection","features":[{"type":"Feature","properties":{"adcode":"419001","name":"济源市"},"geometry":{"type":"MultiPolygon","coordinates":[[[[112.758,35.204436],[112.71264,35.18701],[112.633056,35.265569],[112.637208,35.225686],[112.401413,35.241877],[112.288548,35.21754],[112.304465,35.251884],[112.242748,35.234812],[112.058793,35.279889],[112.08119,35.221613],[112.042058,35.200264],[112.066279,35.153522],[112.038912,35.045501],[112.1514,35.015399],[112.247844,34.940735],[112.521072,34.892761],[112.537304,34.916013],[112.496914,34.921726],[112.505155,34.942459],[112.666462,34.9875],[112.735289,35.043338],[112.766304,35.107196],[112.758,35.204436]]]]}},{"type":"Feature","properties":{"adcode":"429004","name":"仙桃市"},"geometry":{"type":"MultiPolygon","coordinates":[[[[113.465611,30.391921],[113.158453,30.430191],[113.023129,30.529305],[112.943426,30.512886],[112.99796,30.461215],[112.957564,30.380874],[113.010855,30.290438],[113.002621,30.232389],[113.091801,30.146752],[113.309624,30.156581],[113.376897,30.19284],[113.534516,30.067871],[113.668053,30.079899],[113.822565,30.158212],[113.817282,30.198246],[113.755913,30.232045],[113.792735,30.28388],[113.76438,30.288981],[113.751718,30.375393],[113.621211,30.421246],[113.621754,30.486027],[113.562948,30.474948],[113.536924,30.420561],[113.465611,30.391921]]],[[[113.761817,30.298196],[113.761273,30.296267],[113.762128,30.296353],[113.761817,30.298196]]]]}},{"type":"Feature","properties":{"adcode":"429005","name":"潜江市"},"geometry":{"type":"MultiPolygon","coordinates":[[[[112.5279,30.394447],[112.502342,30.373894],[112.580413,30.209485],[112.583288,30.127435],[112.817036,30.078309],[112.788992,30.102832],[112.853314,30.179625],[112.963468,30.134089],[113.020022,30.147825],[113.010855,30.290438],[112.957564,30.380874],[112.99796,30.461215],[112.951117,30.477643],[112.954535,30.525714],[112.908857,30.574445],[112.877007,30.549313],[112.884931,30.504889],[112.833893,30.500313],[112.791401,30.573462],[112.711309,30.554143],[112.677206,30.584102],[112.717602,30.634],[112.622906,30.619007],[112.621585,30.52332],[112.597271,30.503692],[112.58422,30.526997],[112.578238,30.45116],[112.535435,30.437381],[112.5279,30.394447]]],[[[112.671458,30.627807],[112.638598,30.625372],[112.647842,30.612215],[112.671458,30.627807]]],[[[112.985453,30.417778],[112.980792,30.417778],[112.980636,30.412599],[112.985453,30.417778]]],[[[113.029266,30.195843],[113.032218,30.19151],[113.032684,30.191639],[113.029266,30.195843]]],[[[112.979393,30.472296],[112.977917,30.472039],[112.978539,30.471398],[112.979393,30.472296]]]]}},{"type":"Feature","properties":{"adcode":"429006","name":"天门市"},"geometry":{"type":"MultiPolygon","coordinates":[[[[113.440131,30.489407],[113.462426,30.633871],[113.390803,30.676059],[113.394454,30.722581],[113.439743,30.722751],[113.437257,30.781959],[113.291912,30.903332],[113.188594,30.816281],[113.082323,30.823996],[113.075953,30.785072],[112.995474,30.785285],[112.880192,30.697743],[112.826436,30.722922],[112.811598,30.823528],[112.593076,30.676315],[112.63619,30.640961],[112.71698,30.651765],[112.677206,30.584102],[112.702764,30.553673],[112.785652,30.575983],[112.818512,30.511475],[112.871647,30.491545],[112.897438,30.571453],[112.950495,30.530588],[113.075099,30.511133],[113.069195,30.485343],[113.110988,30.485386],[113.158453,30.430191],[113.345047,30.425226],[113.45458,30.378305],[113.466155,30.460317],[113.440131,30.489407]]],[[[113.439743,30.722751],[113.394454,30.722581],[113.38552,30.678706],[113.433373,30.670722],[113.439743,30.722751]]],[[[113.453881,30.506856],[113.448133,30.492999],[113.458154,30.506044],[113.453881,30.506856]]],[[[112.829776,30.728981],[112.826436,30.722922],[112.848264,30.719167],[112.829776,30.728981]]],[[[112.614594,30.703932],[112.607214,30.710888],[112.605816,30.704231],[112.614594,30.703932]]],[[[113.166687,30.436482],[113.165134,30.437424],[113.15822,30.43156],[113.166687,30.436482]]]]}},{"type":"Feature","properties":{"adcode":"429021","name":"神农架林区"},"geometry":{"type":"MultiPolygon","coordinates":[[[[109.982305,31.512537],[109.940589,31.47872],[110.140001,31.390502],[110.181096,31.295584],[110.321702,31.394866],[110.467591,31.328873],[110.512569,31.356302],[110.53735,31.317298],[110.573861,31.330145],[110.611926,31.483123],[110.707864,31.477154],[110.743676,31.538685],[110.789509,31.552983],[110.84816,31.499503],[110.947827,31.566433],[110.970666,31.638174],[110.891429,31.675778],[110.848704,31.771491],[110.760766,31.828147],[110.670809,31.860403],[110.509229,31.856778],[110.451044,31.805961],[110.405056,31.81773],[110.370176,31.771702],[110.233454,31.732787],[110.219393,31.570746],[110.129436,31.603896],[109.982305,31.512537]]]]}},{"type":"Feature","properties":{"adcode":"469001","name":"五指山市"},"geometry":{"type":"MultiPolygon","coordinates":[[[[109.715419,18.833686],[109.699123,18.889379],[109.730512,18.913649],[109.601532,18.910318],[109.55357,18.946321],[109.524033,19.030986],[109.468386,19.032254],[109.456349,18.995635],[109.32635,18.926338],[109.374591,18.853998],[109.356628,18.710653],[109.408016,18.627733],[109.539866,18.659508],[109.533662,18.694295],[109.576717,18.714782],[109.619865,18.678252],[109.641809,18.72304],[109.703012,18.721769],[109.681531,18.786071],[109.715419,18.833686]]]]}},{"type":"Feature","properties":{"adcode":"469002","name":"琼海市"},"geometry":{"type":"MultiPolygon","coordinates":[[[[110.610593,19.084394],[110.730035,19.378859],[110.633555,19.391354],[110.604574,19.350386],[110.546242,19.46836],[110.368744,19.391829],[110.327356,19.315261],[110.3593,19.298646],[110.344392,19.228368],[110.150876,19.208419],[110.115229,19.133191],[110.158562,18.99944],[110.229579,19.002452],[110.249949,18.976292],[110.477539,19.096912],[110.610593,19.084394]]]]}},{"type":"Feature","properties":{"adcode":"469005","name":"文昌市"},"geometry":{"type":"MultiPolygon","coordinates":[[[[110.730035,19.378859],[110.844015,19.450179],[110.920774,19.552598],[111.071327,19.628895],[110.969569,20.010151],[110.808738,20.035672],[110.744665,20.073946],[110.687073,20.16353],[110.526612,20.075206],[110.699573,19.861512],[110.704665,19.805992],[110.670314,19.812776],[110.623,19.735461],[110.623463,19.664109],[110.672814,19.647214],[110.641333,19.549122],[110.611518,19.526841],[110.519297,19.563341],[110.469854,19.531424],[110.485779,19.502345],[110.520594,19.509931],[110.604574,19.350386],[110.633555,19.391354],[110.730035,19.378859]]]]}},{"type":"Feature","properties":{"adcode":"469006","name":"万宁市"},"geometry":{"type":"MultiPolygon","coordinates":[[[[110.158562,18.99944],[110.045322,18.884778],[110.095785,18.811467],[110.014952,18.732885],[110.020786,18.658873],[110.115877,18.592774],[110.213931,18.578789],[110.329393,18.642509],[110.495316,18.649976],[110.500779,18.752732],[110.577908,18.784642],[110.610593,19.084394],[110.477539,19.096912],[110.249949,18.976292],[110.229579,19.002452],[110.158562,18.99944]]]]}},{"type":"Feature","properties":{"adcode":"469007","name":"东方市"},"geometry":{"type":"MultiPolygon","coordinates":[[[[109.125242,18.878432],[109.089779,18.909842],[109.098853,19.028291],[109.008762,19.050005],[109.022929,19.107052],[108.954874,19.218869],[108.704136,19.262719],[108.644785,19.349278],[108.591082,19.141587],[108.637841,18.924593],[108.595619,18.872086],[108.593212,18.809404],[108.659785,18.716846],[108.81145,18.720022],[108.928578,18.790198],[109.071076,18.807499],[109.125242,18.878432]]]]}},{"type":"Feature","properties":{"adcode":"469021","name":"定安县"},"geometry":{"type":"MultiPolygon","coordinates":[[[[110.224857,19.221718],[110.344392,19.228368],[110.3593,19.298646],[110.327356,19.315261],[110.368744,19.391829],[110.546242,19.46836],[110.469854,19.531424],[110.519297,19.563341],[110.401151,19.606626],[110.372633,19.654004],[110.393373,19.698053],[110.340041,19.720625],[110.262449,19.687318],[110.221616,19.629843],[110.160784,19.67153],[110.13134,19.648003],[110.137266,19.56034],[110.192172,19.58925],[110.196339,19.535374],[110.243005,19.517675],[110.227727,19.450654],[110.164487,19.426146],[110.188283,19.306242],[110.228098,19.301969],[110.224857,19.221718]]]]}},{"type":"Feature","properties":{"adcode":"469022","name":"屯昌县"},"geometry":{"type":"MultiPolygon","coordinates":[[[[110.115229,19.133191],[110.150876,19.208419],[110.170598,19.191317],[110.224857,19.221718],[110.228098,19.301969],[110.188283,19.306242],[110.165691,19.361459],[110.164487,19.426146],[110.227727,19.450654],[110.243005,19.517675],[110.196339,19.535374],[110.192172,19.58925],[110.101803,19.54928],[110.119488,19.503293],[110.045785,19.456029],[110.020508,19.485432],[109.938287,19.485749],[109.912917,19.391671],[109.826436,19.343108],[109.822733,19.289626],[109.923565,19.239608],[109.957638,19.188625],[110.115229,19.133191]]]]}},{"type":"Feature","properties":{"adcode":"469023","name":"澄迈县"},"geometry":{"type":"MultiPolygon","coordinates":[[[[110.137266,19.56034],[110.13134,19.648003],[110.160784,19.67153],[110.221616,19.629843],[110.262449,19.687318],[110.222357,19.67974],[110.228283,19.753767],[110.186246,19.864193],[110.143932,19.889106],[110.161895,19.977693],[110.106525,20.026851],[109.997638,19.979899],[109.855047,19.984153],[109.879491,19.885322],[109.842269,19.871446],[109.884121,19.853311],[109.897084,19.77933],[109.852732,19.652582],[109.786437,19.608047],[109.728197,19.496023],[109.751993,19.416974],[109.793474,19.379966],[109.857269,19.412388],[109.912917,19.391671],[109.94699,19.468044],[110.020508,19.485432],[110.045785,19.456029],[110.119488,19.503293],[110.101803,19.54928],[110.137266,19.56034]]]]}},{"type":"Feature","properties":{"adcode":"469024","name":"临高县"},"geometry":{"type":"MultiPolygon","coordinates":[[[[109.855047,19.984153],[109.761715,19.981317],[109.712271,20.017398],[109.526626,19.943494],[109.498663,19.873339],[109.564588,19.854888],[109.599402,19.730726],[109.557366,19.697421],[109.582921,19.637581],[109.7694,19.578508],[109.852732,19.652582],[109.897084,19.77933],[109.884121,19.853311],[109.842269,19.871446],[109.879491,19.885322],[109.855047,19.984153]]]]}},{"type":"Feature","properties":{"adcode":"469025","name":"白沙黎族自治县"},"geometry":{"type":"MultiPolygon","coordinates":[[[[109.298203,18.960911],[109.367739,18.936171],[109.468386,19.032254],[109.524033,19.030986],[109.561347,19.072668],[109.601439,19.053492],[109.687734,19.118775],[109.686994,19.178965],[109.541625,19.311939],[109.468386,19.301178],[109.506348,19.359561],[109.483848,19.406063],[109.424405,19.354815],[109.318943,19.398155],[109.26774,19.376803],[109.178389,19.399262],[109.13052,19.479584],[109.051447,19.487803],[109.043669,19.342792],[109.142834,19.265727],[109.120242,19.203985],[109.177093,19.083443],[109.271166,19.067438],[109.298203,18.960911]]]]}},{"type":"Feature","properties":{"adcode":"469026","name":"昌江黎族自治县"},"geometry":{"type":"MultiPolygon","coordinates":[[[[109.04478,19.430415],[108.997373,19.431522],[108.928671,19.524313],[108.644785,19.349278],[108.704136,19.262719],[108.954874,19.218869],[109.022929,19.107052],[109.008762,19.050005],[109.098853,19.028291],[109.089779,18.909842],[109.125242,18.878432],[109.141816,18.904449],[109.265518,18.905877],[109.298203,18.960911],[109.271166,19.067438],[109.177093,19.083443],[109.120242,19.203985],[109.142834,19.265727],[109.043669,19.342792],[109.04478,19.430415]]]]}},{"type":"Feature","properties":{"adcode":"469027","name":"乐东黎族自治县"},"geometry":{"type":"MultiPolygon","coordinates":[[[[109.405146,18.623443],[109.356628,18.710653],[109.374591,18.853998],[109.32635,18.926338],[109.34848,18.946321],[109.298203,18.960911],[109.265518,18.905877],[109.141816,18.904449],[109.071076,18.807499],[108.928578,18.790198],[108.81145,18.720022],[108.659785,18.716846],[108.644971,18.486741],[108.70997,18.444119],[108.881264,18.416599],[108.932374,18.335288],[109.072557,18.452231],[109.195148,18.469407],[109.203574,18.553517],[109.313295,18.517429],[109.332832,18.575451],[109.405146,18.623443]]]]}},{"type":"Feature","properties":{"adcode":"469028","name":"陵水黎族自治县"},"geometry":{"type":"MultiPolygon","coordinates":[[[[110.014952,18.732885],[109.94412,18.771942],[109.830696,18.728597],[109.773474,18.809404],[109.756159,18.788928],[109.771993,18.723675],[109.839677,18.67857],[109.804677,18.594364],[109.846621,18.57116],[109.828751,18.511229],[109.781159,18.51107],[109.809955,18.459388],[109.785048,18.426622],[109.805418,18.347543],[110.070785,18.376187],[110.116618,18.506618],[110.213931,18.578789],[110.115877,18.592774],[110.020786,18.658873],[110.014952,18.732885]]]]}},{"type":"Feature","properties":{"adcode":"469029","name":"保亭黎族苗族自治县"},"geometry":{"type":"MultiPolygon","coordinates":[[[[109.715419,18.833686],[109.681531,18.786071],[109.703012,18.721769],[109.641809,18.72304],[109.619865,18.678252],[109.576717,18.714782],[109.533662,18.694295],[109.539866,18.659508],[109.405146,18.623443],[109.423386,18.574657],[109.535237,18.53142],[109.515607,18.429008],[109.539866,18.396713],[109.665883,18.391462],[109.710882,18.426462],[109.725234,18.493102],[109.828751,18.511229],[109.846621,18.57116],[109.804677,18.594364],[109.839677,18.67857],[109.771993,18.723675],[109.773474,18.809404],[109.715419,18.833686]]]]}},{"type":"Feature","properties":{"adcode":"469030","name":"琼中黎族苗族自治县"},"geometry":{"type":"MultiPolygon","coordinates":[[[[109.876436,19.386926],[109.857269,19.412388],[109.793474,19.379966],[109.646439,19.402425],[109.647272,19.357505],[109.700234,19.349436],[109.713382,19.309881],[109.687734,19.118775],[109.524033,19.030986],[109.55357,18.946321],[109.601532,18.910318],[109.730512,18.913649],[109.699123,18.889379],[109.715419,18.833686],[109.773474,18.809404],[109.830696,18.728597],[109.94412,18.771942],[110.014952,18.732885],[110.095785,18.811467],[110.045322,18.884778],[110.158562,18.99944],[110.115229,19.133191],[110.057267,19.134617],[109.822733,19.289626],[109.826436,19.343108],[109.876436,19.386926]]]]}},{"type":"Feature","properties":{"adcode":"659001","name":"石河子市"},"geometry":{"type":"MultiPolygon","coordinates":[[[[86.122689,44.448992],[86.043281,44.452141],[85.981037,44.407037],[85.912156,44.426515],[85.904833,44.332647],[85.954262,44.309551],[85.985842,44.157265],[86.065937,44.160286],[86.096144,44.125897],[86.141683,44.32734],[86.122689,44.448992]]]]}},{"type":"Feature","properties":{"adcode":"659002","name":"阿拉尔市"},"geometry":{"type":"MultiPolygon","coordinates":[[[[81.884102,40.941004],[81.457085,40.804699],[81.385687,40.825033],[81.32596,40.805154],[81.32985,40.762947],[81.140828,40.698979],[80.990479,40.702476],[80.867363,40.658987],[80.791846,40.703236],[80.725939,40.701412],[80.592296,40.619884],[80.621588,40.556845],[80.670789,40.569031],[80.696419,40.520121],[80.741272,40.533228],[80.827774,40.476513],[80.729372,40.452411],[80.723422,40.488409],[80.673993,40.511585],[80.683833,40.464616],[80.633717,40.465378],[80.605798,40.423262],[80.740128,40.369357],[80.931438,40.432573],[81.003065,40.396849],[81.210395,40.397307],[81.281107,40.43593],[81.760299,40.437914],[81.978613,40.468429],[81.822544,40.685144],[81.743365,40.733326],[81.884102,40.941004]]]]}},{"type":"Feature","properties":{"adcode":"659003","name":"图木舒克市"},"geometry":{"type":"MultiPolygon","coordinates":[[[[79.190647,39.72068],[79.240306,39.733017],[79.246484,39.784808],[79.325663,39.80345],[79.28882,39.814848],[79.278522,39.877658],[79.406215,39.89212],[79.55725,39.865039],[79.606222,39.913347],[79.573955,40.012012],[79.482648,40.097652],[79.045562,40.036887],[79.015355,40.022147],[79.039155,39.981291],[78.942813,39.908118],[78.989496,39.868271],[78.906885,39.831326],[79.004829,39.800677],[78.993387,39.781418],[78.870728,39.762154],[78.883772,39.704176],[78.840521,39.711271],[78.806424,39.657264],[78.777819,39.825012],[78.657449,39.736409],[78.708709,39.650471],[78.796584,39.653404],[78.84075,39.6131],[79.000252,39.624993],[79.003684,39.65927],[79.190647,39.72068]]]]}},{"type":"Feature","properties":{"adcode":"659004","name":"五家渠市"},"geometry":{"type":"MultiPolygon","coordinates":[[[[87.504658,44.066424],[87.492529,44.007757],[87.527542,44.093648],[87.576743,44.116541],[87.584066,44.239347],[87.652489,44.196236],[87.691163,44.221963],[87.716107,44.356881],[87.693452,44.416633],[87.598711,44.477756],[87.554774,44.580532],[87.501912,44.594812],[87.514498,44.548818],[87.370557,44.566963],[87.449279,44.443552],[87.423877,44.351433],[87.489783,44.303525],[87.471934,44.283145],[87.523423,44.227279],[87.504658,44.066424]]]]}},{"type":"Feature","properties":{"adcode":"659005","name":"北屯市"},"geometry":{"type":"MultiPolygon","coordinates":[[[[87.556147,47.356673],[87.527542,47.338604],[87.74311,47.204866],[88.077904,47.128663],[88.273563,47.132892],[88.342673,47.174344],[88.343359,47.232512],[88.428717,47.234691],[88.43009,47.258239],[88.262121,47.238503],[87.906731,47.341322],[87.862565,47.317539],[87.828696,47.351919],[87.873091,47.346213],[87.803066,47.382339],[87.753637,47.380167],[87.771715,47.357081],[87.556147,47.356673]]],[[[87.540357,47.4297],[87.481316,47.411114],[87.554774,47.42129],[87.540357,47.4297]]]]}},{"type":"Feature","properties":{"adcode":"659006","name":"铁门关市"},"geometry":{"type":"MultiPolygon","coordinates":[[[[85.512142,41.914581],[85.498412,41.866369],[85.367973,41.826488],[85.357675,41.747399],[85.705513,41.745903],[85.703682,41.684237],[85.785836,41.664468],[85.73961,41.756374],[85.792701,41.82589],[85.512142,41.914581]]],[[[86.099576,41.798392],[85.894993,41.821856],[85.876685,41.778957],[86.091109,41.771181],[86.099576,41.798392]]],[[[85.437311,41.932036],[85.443948,41.93845],[85.408706,41.94203],[85.437311,41.932036]]]]}},{"type":"Feature","properties":{"adcode":"659007","name":"双河市"},"geometry":{"type":"MultiPolygon","coordinates":[[[[82.206996,44.821248],[82.268097,44.832625],[82.542934,44.740124],[82.543163,44.709067],[82.666737,44.770025],[82.738822,44.858641],[82.679552,44.871432],[82.656439,44.944425],[82.446364,44.883509],[82.3562,44.901833],[82.278395,44.860631],[82.07999,44.895584],[82.162372,44.864326],[82.083422,44.837602],[82.122096,44.806313],[82.150015,44.833905],[82.206996,44.821248]]],[[[82.20036,44.984291],[82.133767,45.037165],[81.940397,45.010238],[81.993946,44.961169],[82.045892,44.972802],[82.063971,44.933638],[82.200589,44.91788],[82.20036,44.984291]]],[[[82.23583,44.6817],[82.239263,44.724028],[82.192579,44.752229],[82.080905,44.64405],[82.23583,44.6817]]],[[[82.393959,44.669724],[82.347276,44.691252],[82.358947,44.66844],[82.393959,44.669724]]],[[[82.454144,45.068895],[82.295786,45.106693],[82.275191,45.03008],[82.438812,45.006977],[82.454144,45.068895]]]]}},{"type":"Feature","properties":{"adcode":"659008","name":"可克达拉市"},"geometry":{"type":"MultiPolygon","coordinates":[[[[80.440804,44.083854],[80.522042,43.816652],[80.587491,43.725724],[80.624792,43.754407],[80.576735,43.783945],[80.660949,43.778734],[80.672391,43.844713],[80.736237,43.921164],[80.741729,44.016842],[80.679256,44.062534],[80.701911,44.133093],[80.637607,44.180852],[80.566895,44.17323],[80.553851,44.101424],[80.586347,44.017707],[80.531196,44.029674],[80.521356,44.07017],[80.440804,44.083854]]],[[[80.739899,43.888659],[80.764156,43.854257],[81.125953,43.870593],[80.873771,43.91452],[80.739899,43.888659]]],[[[80.9351,43.929685],[81.071031,43.907731],[81.082931,43.930984],[81.05547,43.944124],[81.079269,43.96592],[80.987047,43.990016],[80.9351,43.929685]]],[[[80.624792,43.754407],[80.587491,43.725724],[80.632344,43.663384],[80.782463,43.696882],[80.775369,43.80334],[80.672391,43.844713],[80.669873,43.753683],[80.624792,43.754407]]],[[[81.05547,43.944124],[81.082931,43.930984],[81.076295,43.96058],[81.05547,43.944124]]]]}},{"type":"Feature","properties":{"adcode":"659009","name":"昆玉市"},"geometry":{"type":"MultiPolygon","coordinates":[[[[79.618122,37.392438],[79.572354,37.38256],[79.580363,37.340008],[79.618122,37.392438]]],[[[79.694326,37.517546],[79.699131,37.561269],[79.661601,37.554116],[79.643294,37.424292],[79.686774,37.447537],[79.694326,37.517546]]],[[[78.543028,37.574301],[78.54463,37.791066],[78.350344,37.731146],[78.359956,37.653876],[78.330664,37.603537],[78.441881,37.642128],[78.491081,37.616879],[78.488793,37.568739],[78.543028,37.574301]]],[[[79.367083,37.325021],[79.33825,37.371406],[79.377152,37.416489],[79.249917,37.414896],[79.256325,37.236316],[79.197513,37.206299],[79.374406,37.174033],[79.367083,37.325021]]],[[[81.047461,36.250771],[81.049978,36.315101],[81.031671,36.259341],[81.047461,36.250771]]],[[[79.783116,37.580499],[79.783802,37.537265],[79.818586,37.537742],[79.818128,37.574937],[79.783116,37.580499]]]]}},{"type":"Feature","properties":{"adcode":"659010","name":"胡杨河市"},"geometry":{"type":"MultiPolygon","coordinates":[[[[84.853768,44.552104],[85.010295,44.574819],[85.06842,44.626358],[85.018304,44.61965],[85.04668,44.740266],[84.84942,44.826511],[84.917156,44.836891],[84.917156,44.888481],[84.861548,44.899419],[84.805253,45.025687],[84.657422,45.063514],[84.65582,45.152244],[84.541171,45.152668],[84.558334,45.084187],[84.516456,44.988829],[84.610052,44.995351],[84.652388,44.791231],[84.626071,44.791658],[84.880084,44.626929],[84.853768,44.552104]]]]}}],"_source":"DataV decorative counties (not in cn-atlas prefecture level)"}