{"type":"Topology","transform":{"scale":[0.0006559958372952987,0.0005659727748412972],"translate":[122.93865,24.212104]},"arcs":[[[31948,35242],[121,-17],[-54,-17],[-193,52],[6,13],[28,0],[92,-31]],[[34800,33880],[88,-24],[-22,-23],[-50,-8],[-27,-34],[-79,-19],[-37,-28],[-84,-1],[-86,-93],[-32,-84],[-52,-61],[20,-11],[-48,-2],[-71,29],[-74,-16],[-155,-3],[-108,-57],[-142,-23],[-29,-39],[5,-31],[70,-16],[-29,-23],[-58,-5],[-18,-33],[-36,-19],[-111,19],[37,-63],[-20,-35],[-175,-18],[-87,49],[-3,59],[-64,11],[-62,-49],[-34,-70],[9,-25],[64,-54],[-63,-18],[-218,44],[-118,-9],[-39,-19],[-47,7],[-114,34],[-49,76],[-54,5],[-213,-46],[-215,-88],[-237,-146],[-147,-153],[-231,-170],[-97,-102],[-193,-262],[-152,-240],[-36,-158],[20,-141],[-11,-76],[-42,-144],[-17,-36],[-41,-33],[-36,-103],[-90,59],[-29,51],[-74,66],[-237,137],[-308,94],[-322,163],[-132,36],[-272,168],[-173,165],[-160,20],[-125,69],[-84,86],[-166,72],[-138,31],[-137,-2],[-133,-26],[-185,-65],[-252,-170],[-72,-42],[-71,-20],[-118,-73],[-114,-134],[-60,-29],[-38,9],[-31,43],[66,-4],[18,23],[-105,58],[-26,85],[-255,254],[-72,26],[-136,-13],[-109,16],[-104,-29],[-117,-105],[-85,-127],[-56,-146],[-11,-81],[16,-79],[46,-46],[205,-107],[113,-109],[28,-11],[251,50],[92,-56],[96,-138],[109,-79],[101,-115],[56,-36],[110,-19],[36,-20],[142,-127],[-16,-16],[-104,-20],[-119,-98],[-57,-21],[-278,104],[-74,-1],[-102,-44],[-15,26],[53,59],[-9,32],[-28,23],[-74,4],[-29,-21],[-57,-139],[-123,-67],[-107,-31],[-30,-64],[15,-143],[-17,-58],[-48,-32],[-192,-54],[-51,-44],[-49,-99],[-109,35],[-57,-13],[-94,51],[-89,246],[60,203],[79,112],[18,72],[53,6],[13,17],[-4,92],[32,24],[11,61],[-19,61],[8,60],[-50,51],[-78,121],[-51,45],[-152,59],[-67,99],[-61,24],[-86,68],[-30,113],[7,35],[82,126],[36,119],[-26,211],[17,68],[51,64],[61,24],[148,8],[60,22],[64,70],[62,24],[72,111],[26,8],[92,-95],[31,-6],[34,22],[13,82],[39,32],[60,105],[220,181],[9,34],[-61,119],[-73,91],[-154,135],[-14,71],[47,131],[113,6],[29,18],[18,52],[34,8],[204,-126],[104,-93],[110,-44],[53,-50],[178,15],[150,44],[17,-9],[-28,-54],[27,-32],[225,-60],[89,24],[116,75],[102,95],[80,118],[26,78],[-1,81],[-122,205],[4,35],[44,63],[-41,85],[4,34],[-45,117],[73,139],[60,41],[158,47],[86,61],[85,110],[28,81],[17,146],[-22,372],[16,63],[124,197],[68,305],[-13,298],[-46,212],[-48,123],[-206,370],[-18,75],[14,78],[52,61],[47,98],[-15,142],[41,51],[27,-25],[13,-60],[200,36],[79,45],[5,64],[23,29],[78,35],[65,-92],[46,-22],[59,-95],[251,-181],[485,-497],[140,-238],[53,-30],[74,-107],[294,-280],[50,-23],[63,-85],[94,-56],[115,-102],[131,-88],[55,-19],[86,-74],[83,-24],[27,-62],[55,-50],[225,-115],[341,-112],[0,-12],[-124,13],[-22,-13],[52,-55],[21,-67],[21,13],[62,-36],[236,-7],[94,66],[183,-8],[80,-41],[-69,-46],[-32,-86],[72,-20],[55,53],[40,109],[42,13],[32,-20],[-12,-50],[34,-75],[37,-23],[39,-71],[78,-48],[78,-25],[213,-31],[260,-18],[72,12],[66,37],[331,317],[108,58],[126,90],[74,117],[90,79],[20,45],[29,6],[48,-94],[-2,-77],[-33,-65],[-91,-101],[-46,-151],[-177,-206],[-58,-127],[15,-32],[-9,-37],[-59,-119],[68,-155],[120,-117],[36,-54],[142,-394],[52,-60],[73,-49],[-48,-7],[-96,71],[-44,9],[-18,-34],[10,-19],[77,-24],[8,-12],[-25,-8],[27,-27],[94,-31],[129,-10],[75,-43],[7,22],[-39,52],[131,115],[78,31],[43,47],[94,0],[41,25],[26,-12]],[[25320,31859],[24,-21],[-66,-101],[-18,-130],[-23,-39],[-59,-48],[-39,39],[-23,175],[57,75],[69,13],[78,37]],[[34105,34244],[75,-50],[3,-18],[-77,-22],[-43,-43],[-16,8],[5,28],[84,48],[-197,85],[166,-36]],[[28031,37034],[13,-26],[-39,-58],[-89,-45],[-155,84],[-28,41],[22,35],[-21,36],[54,53],[54,16],[100,-42],[89,-94]],[[27613,37525],[25,-13],[7,-32],[-22,-182],[-36,-100],[0,48],[-56,102],[3,122],[-52,78],[30,7],[31,-47],[70,17]],[[25052,30585],[14,-16],[-12,-16],[-43,-19],[-8,54],[49,-3]],[[25923,28654],[-2,203],[-42,74],[-59,-5],[-30,12],[5,33],[61,59],[39,8],[20,41],[32,14],[59,113],[72,46],[117,-41],[115,74],[32,-15],[60,31],[59,138],[38,272],[73,-74],[19,4],[-19,59],[24,14],[34,-7],[-13,25],[-74,-1],[-15,19],[-21,-15],[-8,74],[-33,50],[-79,21],[-4,19],[16,8],[73,-3],[25,23],[33,205],[75,-45],[108,-100],[33,-1],[41,25],[21,40],[37,11],[69,-11],[59,-46],[15,-40],[-18,-116],[16,-114],[48,-257],[46,-75],[75,-32],[72,7],[80,79],[29,55],[-12,33],[12,20],[-46,14],[32,7],[-1,27],[42,68],[22,-3],[17,-23],[53,-9],[49,-55],[-9,-39],[126,-37],[39,-54],[42,-24],[55,11],[58,57],[78,185],[15,161],[48,85],[-33,99],[-76,95],[-68,24],[-37,-56],[10,-9],[23,27],[-18,-36],[-136,-95],[-122,24],[-48,-41],[-128,-16],[-52,-32],[-21,-31],[-74,29],[-1,90],[20,20],[3,79],[35,137],[18,14],[33,143],[98,111],[9,35],[-12,41],[22,40],[121,-98],[110,-18],[65,-30],[133,-136],[124,-60],[63,0],[98,34],[125,95],[-10,-86],[-51,-114],[-51,-268],[12,-59],[-18,-172],[6,-171],[50,-368],[21,-98],[83,-190],[62,-55],[66,19],[21,-35],[140,-126]],[[28571,28692],[-142,-78],[-53,-84],[-151,14],[-148,-48],[-83,27],[-328,-164],[-113,-87],[-59,11],[-74,43]],[[27420,28326],[56,221],[-4,74],[-36,39],[18,30],[-12,32],[-109,51],[-76,-8],[-47,-53],[-109,-65],[-105,-24],[-85,23],[-73,-30],[-25,7],[-143,85],[-17,30],[-21,7],[-78,-14],[-87,-46],[-273,3],[-92,27],[-100,-57],[-79,-4]],[[28571,28692],[58,-67],[11,-34],[27,-18],[52,-120],[97,-159],[-41,-40],[-2,-34],[78,-43],[19,-36],[-45,-42],[-15,-37],[7,-42],[118,-109],[45,-22],[18,-76],[-29,-51],[45,-74],[57,-230],[-27,-39],[-20,-146],[-27,-64],[9,-23],[70,66],[36,5],[-8,-97],[60,-60],[-21,-42],[-63,-66],[-95,-50],[28,-31],[38,4],[62,68],[33,-31],[-28,-21],[-13,-65],[-77,-9],[-64,-48],[38,-17],[-89,-80],[29,-10],[34,10],[52,36],[4,-42],[-105,-57],[27,-34],[-51,0],[0,-48],[73,2],[4,-38],[-30,-28],[-42,-14],[-36,6],[5,-27],[18,-10],[50,1],[-16,-30],[-32,-19],[-78,-13],[99,-75],[7,-21],[-35,-15],[-84,27],[-28,-24],[84,-50],[-74,-11],[49,-54],[-12,-7],[-63,13],[-93,-5],[-27,17],[31,-85],[-32,-1],[-21,-23],[23,-8],[3,-33],[-40,-1],[-37,36],[-10,18],[31,25],[-65,3],[-19,-20],[3,-32]],[[28509,26071],[-153,40],[-62,-6],[-26,-41],[-2,-92],[-46,-69],[-12,-111],[-55,-43],[-131,49],[-129,-97],[-28,-8],[-109,58],[-50,63],[6,31],[28,23],[-11,19],[-207,21],[-270,126],[-86,9]],[[27166,26043],[59,171],[-5,21],[-55,46],[-14,47],[22,62],[49,47],[-34,37],[-20,80],[-94,90],[-62,177],[123,274],[79,92],[30,57],[3,55],[-34,101],[55,114],[-61,58],[-5,41],[33,45],[75,2],[25,20],[-38,141],[-11,169],[27,89],[-1,135],[45,64],[63,48]],[[28509,26071],[7,-79],[44,-125],[-33,22],[-24,47],[-73,-16],[-2,-111],[-100,-90],[69,-70],[-1,-44],[-36,6],[-41,-41],[-80,-40],[16,-29],[89,-12],[5,-11],[-37,-61],[-67,-49],[72,-62],[22,25],[29,-53],[-8,-66],[-28,15],[-14,32],[-31,-83],[20,-26],[-57,-30],[26,-66],[47,18],[29,-7],[18,-23],[-44,9],[-29,-33],[36,-21],[7,-74],[20,-27],[-26,-61],[-52,43],[-43,12],[6,42],[-64,36],[22,50],[-18,16],[-63,0],[-81,50],[-200,-41],[-32,-26],[-18,-85],[-26,0],[-31,86],[-27,-12],[-25,12],[-28,-19],[-47,-91],[46,4],[3,-30],[-43,-28],[-99,-127],[-32,-64],[-62,-214],[-10,-149],[21,-133]],[[27431,24167],[-105,-12],[-18,-28],[-5,-121],[-37,-22],[-72,-1],[10,-18],[-31,-10],[-47,12],[-59,38],[-18,31],[-5,78],[-42,41],[-117,35],[-118,-14],[-83,85],[-59,20],[-128,-15],[-78,32]],[[26419,24298],[20,143],[40,29],[79,13],[28,17],[110,130],[35,229],[74,134],[57,66],[38,103],[-4,48],[-36,49],[-7,106],[-30,112],[10,19],[62,2],[26,29],[12,128],[18,41],[-130,223]],[[26821,25919],[17,-14],[51,-3],[98,31],[179,110]],[[25827,26332],[17,32],[38,228],[22,44],[49,20],[48,51],[38,141],[43,172],[17,394],[-49,171],[-93,98],[-69,33],[-66,-10],[-52,-55],[-127,-7],[-79,117],[-7,37],[24,13],[-28,15],[-5,49],[4,30],[65,-41],[120,-38],[68,41],[57,59],[113,191],[23,78],[-7,38],[34,78],[20,211],[-119,113],[-3,19]],[[26821,25919],[-82,19],[-46,41],[-43,85],[-119,71],[-201,29],[-50,37],[-113,29],[-122,90],[-93,-18],[-125,30]],[[25320,25324],[77,183],[43,58],[136,114],[88,126],[163,527]],[[26419,24298],[0,-324],[-84,-71],[-80,3],[-88,-35],[-84,59],[-76,-3],[-30,14],[-72,88],[-24,5],[-40,-18],[-61,13],[-91,-11],[-100,26]],[[25589,24044],[-108,68],[-35,36],[-21,54],[40,162],[1,70],[31,55],[22,204],[34,38],[117,-1],[46,18],[72,59],[21,86],[-35,52],[-62,43],[-65,0],[-82,58],[-20,50],[9,139],[-234,89]],[[27431,24167],[91,-159],[45,-129],[-22,-85],[31,-54],[21,-479],[-52,-266],[0,-164],[-31,-78],[-42,-218],[-52,-48],[-138,-54],[-47,-40],[-11,-70]],[[27224,22323],[-279,88],[-68,53],[-15,-32],[7,-79],[-49,-31],[-78,-86],[-48,-4],[-65,37],[-185,159],[-74,34]],[[26370,22462],[-9,133],[-50,35],[-34,69],[-119,83],[-276,66],[-85,-23],[-107,-87],[-67,-7],[-105,-42],[-257,-139],[-97,-33],[-58,-55],[-74,-41]],[[25032,22421],[-203,41],[-18,37]],[[24811,22499],[19,28],[21,137],[-9,178],[-47,92],[-39,-5],[-35,65],[59,125],[21,102],[-30,112],[31,41],[26,10],[153,26],[84,-1],[21,48],[37,27],[205,5],[-1,100],[-26,72],[2,37],[286,346]],[[27224,22323],[-85,-138],[-73,-265],[-107,-198],[-21,-128],[23,-124],[-12,-45],[-81,-97],[22,-216],[103,-261],[219,-361],[79,-117],[27,-13]],[[27318,20360],[-92,15],[-162,157],[-215,99],[-137,7],[-105,-14],[-38,-11],[-34,-41],[-39,-8],[-199,-14],[-95,20],[-240,106],[-57,43],[-193,246],[-80,3]],[[25632,20968],[-64,33],[-57,96]],[[25511,21097],[-31,90]],[[25480,21187],[77,2],[119,53],[89,116],[83,16],[89,93],[35,11],[58,-6],[62,33],[91,22],[65,-6],[36,40],[83,180],[-22,283],[70,73],[-25,76],[-20,289]],[[25480,21187],[-23,40],[-76,60],[-131,25],[-95,-10],[-155,177],[4,48],[57,85],[28,96],[77,132],[-18,39],[-125,26],[-63,40],[-10,22],[38,132],[3,88],[55,79],[-49,81],[35,74]],[[25511,21097],[-169,68],[-74,3],[-63,-26],[-144,79],[-113,10],[-254,75],[-40,0],[-94,-131],[-25,-102],[-431,-197],[-76,-102]],[[24028,20774],[-132,109],[-2,150],[-65,66],[-3,21],[37,8],[18,29],[-27,148],[54,53],[16,42],[-27,135],[-21,20],[-49,12],[-84,-25],[-115,-7],[-76,60],[-18,59],[42,181],[40,85],[96,49],[9,64],[29,18],[129,25],[116,43]],[[23995,22119],[66,32],[109,16],[21,17],[22,64],[123,57],[22,75],[72,41],[1,116],[135,55],[40,67],[37,-2],[72,-71],[24,-62],[72,-25]],[[25632,20968],[66,-107],[64,-170],[43,-60],[12,-68],[-16,-127]],[[25801,20436],[-162,30],[-66,-33],[-112,1],[-57,-32],[-104,-13],[-19,41],[-24,5],[-83,-38],[-63,-8],[-41,6],[-172,95],[-322,78],[-71,43],[-31,-1],[-62,-33],[-46,-40]],[[24366,20537],[-140,18],[-175,90]],[[24051,20645],[-23,129]],[[27318,20360],[31,-26],[-29,-58],[-49,46],[-164,-55],[-7,28],[-84,-17],[-99,-65],[-172,-152],[-92,-133],[-56,-194],[41,-141],[-29,-185],[-25,-36],[-44,8],[-42,-89],[-27,6],[-14,23],[-24,-26],[-39,5],[-24,-40],[-156,19],[-44,-45],[-8,-38],[-167,-98],[-41,-79],[-3,-62],[-30,-39],[-25,-20],[-127,-13],[-32,22],[2,40],[-101,38],[-7,15],[0,19],[85,1],[29,24],[48,-6],[17,23],[-3,24],[-49,25],[21,54],[-21,73],[1,64],[-27,39],[9,74],[62,44],[2,39],[-28,45],[2,38],[-105,44],[33,-1],[33,19],[1,33],[31,52],[73,-22],[23,26],[-12,78],[161,89],[101,123],[28,-4],[18,47],[-24,-1],[-10,65],[-108,100],[-20,-6],[-19,21],[-50,7],[-46,-18],[29,-45],[-64,-40],[-51,32]],[[25801,20178],[33,116],[-33,142]],[[25801,20178],[-21,9],[-20,-40],[-20,14],[-6,27],[-20,0],[-27,-61],[-22,25],[1,42],[-15,21],[-11,-38],[62,-162],[-19,-23],[0,-27]],[[25683,19965],[-135,47],[-66,46],[-194,88],[-38,-12],[-22,-28],[-51,10],[54,-68],[-28,-30],[3,-76],[-16,-16],[-98,118],[-33,18],[-169,27],[-95,74],[-125,53]],[[24670,20216],[-132,75],[-65,64],[-70,149],[-37,33]],[[28078,1020],[12,-21],[-53,-15],[-63,-74],[15,104],[47,14],[42,-8]],[[29352,4300],[-27,-13],[7,-35],[-31,24],[-74,157],[48,-33],[35,-2],[-16,-39],[38,-9],[-12,-36],[21,7],[11,-21]],[[29352,5088],[42,12],[31,-25],[-10,-61],[-25,-17],[-30,19],[-28,48],[52,-25],[-32,49]],[[25690,15766],[108,-50],[24,-34],[-64,-85],[-73,33],[-68,107],[-5,25],[16,22],[26,8],[36,-26]],[[25226,17401],[12,57],[44,34],[50,2],[29,-41],[-21,-56],[-41,-37],[-44,-3],[-29,44]],[[24896,17994],[47,38],[-7,-88],[-44,-80],[-21,33],[25,97]],[[25121,18674],[30,-16],[29,-62],[2,-83],[-6,-19],[-17,-4],[-32,0],[-95,45],[-13,31],[8,137],[94,-29]],[[28223,18],[26,7],[1,-12],[-11,-13],[-16,18]],[[47309,137],[12,10],[4,-22],[-16,12]],[[27971,2130],[-20,17],[1,42],[34,-10],[-15,-49]],[[29346,5183],[2,70],[20,-20],[-22,-50]],[[29355,5984],[-24,24],[5,12],[15,-5],[4,-31]],[[26477,11094],[28,-10],[-11,-17],[-18,-4],[-8,23],[9,8]],[[25637,14559],[1,32],[25,-52],[-26,20]],[[25433,17092],[11,-25],[-11,-26],[-43,-4],[-20,14],[-2,31],[19,28],[26,1],[20,-19]],[[47298,171],[-19,-29],[-20,34],[20,7],[19,-12]],[[29217,6210],[10,-2],[-6,-16],[-4,18]],[[25683,19965],[-111,-83],[-39,-6],[-32,12],[-38,-25],[69,-39],[-1,-55],[-56,17],[-22,-16],[33,-43],[-14,-140],[14,-20],[11,22],[19,-13],[26,-40],[61,-7],[17,-28],[-29,-28],[3,-46],[-60,3],[-34,-27],[-9,-27],[37,-67],[-105,-11],[-3,70],[-19,49],[34,18],[-30,22],[-66,111],[-19,2],[-7,35],[-87,-13],[-30,22],[-80,10],[-276,-59],[-76,-39],[-58,-50],[-5,-90],[24,-84],[-57,24],[-40,-58]],[[24628,19268],[-115,42],[-69,113],[-5,79],[45,72],[-21,160],[-33,13],[-98,-13]],[[24332,19734],[50,99],[241,136],[39,125],[-5,81],[13,41]],[[22372,22551],[105,22],[325,123],[157,95],[82,33],[67,73],[102,-17],[123,39],[122,84],[171,161],[173,98],[42,44],[124,215],[89,72],[44,56],[95,290],[27,64],[47,54],[321,225],[98,7],[127,55],[135,92],[184,193],[73,461],[115,234]],[[23995,22119],[-19,57],[0,128],[-130,129],[-40,163],[-85,26],[-115,-25],[-89,-42],[-64,-92],[-57,-32],[-34,-100],[-74,16],[-78,-36],[-120,-11],[-63,-46],[-56,43],[1,76],[-29,40],[-137,42],[-47,-3],[-30,-32],[-5,-70],[-68,-103],[-104,-50]],[[22552,22197],[-58,242],[-122,112]],[[23660,24485],[176,8],[0,-70],[-94,-159],[-20,-67],[-21,-27],[-177,-111],[-160,-54],[-65,7],[-11,50],[103,31],[7,102],[84,108],[-43,54],[-102,-34],[-23,52],[15,113],[103,170],[181,156],[62,101],[68,17],[8,-27],[-18,-117],[-32,-106],[-65,-140],[-1,-89],[13,1],[12,31]],[[21503,22518],[-26,-32],[-4,-44],[-57,-75],[28,-62],[114,-81],[116,-52],[129,7],[87,-14],[53,10],[77,66],[38,80],[17,57],[-9,34],[20,45],[110,59],[176,35]],[[22552,22197],[2,-189],[-22,-138],[-67,-73],[1,-53],[-85,-168],[-84,-82]],[[22297,21494],[-342,111],[-70,-33],[-13,7],[-3,45],[-13,3],[-116,-41],[-59,14],[-24,-8],[-151,-134],[-30,-66],[-105,-81],[-23,19],[9,47],[-20,28],[-130,28],[-33,-25],[-22,-60],[-26,-12],[-37,8]],[[21089,21344],[-13,52],[13,97],[-23,75],[39,220],[-22,138],[27,76],[-15,96],[53,59],[73,238],[53,68],[130,46],[99,9]],[[20256,21332],[80,65],[30,44],[73,33],[127,118],[320,406],[76,121],[108,247],[8,76],[-23,21],[26,98],[-72,131],[10,126],[-28,41],[-16,-4],[-3,-20],[-30,2],[-10,22],[18,87],[36,52],[-11,20],[53,80],[-17,71],[42,58],[142,73],[58,15],[35,-17],[48,2],[208,95],[65,61],[277,78],[69,-26],[15,-19],[-11,-35],[23,-35],[-4,-24],[-47,-25],[-58,7],[-51,-24],[-25,-87],[18,-40],[28,-4],[-3,-27],[-15,-43],[-39,-41],[-98,15],[-87,-31],[-57,-80],[-1,-34],[-58,-25],[-28,-35],[-104,57],[21,31],[-13,0],[-32,-23],[-58,-85],[-18,-52],[23,-9],[-4,-38],[-8,-13],[-29,2],[-12,-61],[21,-12],[60,22],[30,-4],[45,-50],[26,-9],[36,16],[31,70],[22,13],[13,-7],[11,-233],[-15,-18]],[[21089,21344],[67,-101],[-83,-130],[-26,-98],[-37,-55]],[[21010,20960],[-128,-15],[-108,101],[-51,29],[-107,12],[-70,-11],[-143,46],[-27,31],[-28,103],[-92,76]],[[21508,22864],[-14,-57],[-139,-41],[-64,82],[9,13],[26,-23],[69,27],[39,-24],[65,36],[9,-13]],[[19116,20021],[1,-37],[14,-3],[36,48],[-2,-88],[72,-11],[59,23],[43,48],[37,19],[31,-15],[-42,-22],[-11,-50],[-19,-13],[35,-11],[121,19],[20,14],[16,61],[-42,-19],[-18,32],[-26,9],[22,29],[49,15],[27,-38],[32,1],[26,-32],[25,-8],[36,13],[-28,20],[-18,52],[17,4],[16,-14],[44,17],[-65,114],[17,2],[68,-48],[52,12],[27,-29],[48,37],[45,3],[2,23],[-28,21],[17,63],[-7,21],[-21,-4],[0,49],[97,65],[41,-109],[-30,-40],[31,-39],[33,5],[36,94],[10,107],[-44,87],[-117,107],[1,89],[-56,66],[9,48],[56,42],[66,154],[117,157],[22,43],[-23,39],[7,12],[59,-2],[97,59]],[[21010,20960],[-34,-232],[27,-50],[57,-19],[38,-31],[35,-65],[2,-25],[-53,-80],[-124,-29],[-114,9],[-159,-31],[-36,-40],[-44,22],[-181,26],[-49,-39],[-22,-87],[-50,-87]],[[20303,20202],[-137,51],[-61,-20],[-5,-25],[34,-119],[-17,-42],[-60,1],[-23,-79],[-99,-19],[-55,-40],[-75,39],[-45,-157],[-38,-57],[-89,5],[-114,-83]],[[19519,19657],[-83,-13],[-259,77],[-109,139],[10,50],[-18,66],[56,45]],[[24332,19734],[-108,-29],[-202,-24],[-158,73],[-56,44],[-20,0],[-24,-36],[-34,-181],[3,-177],[-53,-58],[-64,-4],[-72,55],[-62,180],[-58,17],[-65,-14],[-40,17],[-14,113],[17,72],[5,194],[-42,166],[-26,28]],[[23259,20170],[-43,125],[52,86],[-34,70],[56,112],[13,14],[48,-18],[34,12],[124,182],[103,-33],[38,-86],[101,16],[101,-13],[57,-67],[61,9],[81,66]],[[23259,20170],[-30,-87],[-51,-31],[-11,-25],[7,-136],[-48,-82],[27,-69],[-22,-48],[-41,-36],[-88,-32],[-48,-49],[-86,-32],[-155,-120],[-50,-19]],[[22663,19404],[-218,26],[-70,-29],[-63,-8],[-30,25],[-26,62],[14,58]],[[22270,19538],[47,103],[-21,76],[18,19],[43,4],[-30,196],[-87,78],[-27,89],[1,79],[-102,175],[-91,49],[-24,28],[-54,12],[-15,31],[106,140],[107,15],[174,251],[8,45],[-66,108],[39,103],[-3,61],[66,88],[28,96],[-25,57],[-65,53]],[[22270,19538],[-192,-96],[-46,9],[-33,29],[-117,54],[-45,-3],[-98,-44],[-47,2],[-82,53],[-67,22],[-88,123],[-92,53],[-158,-43],[-66,-32],[-24,-2],[-30,20],[-14,-8],[-124,-197],[-10,-172]],[[20937,19306],[-135,63],[-86,97],[-20,5],[-177,-52]],[[20519,19419],[-35,51],[-1,61],[49,225],[-15,105],[-58,143],[-51,-2],[-21,16],[-35,103],[-49,81]],[[24628,19268],[-28,-113],[45,-7],[-29,-92],[21,-40],[46,-17],[18,-40],[9,-66],[-11,-61],[-64,-25],[-72,-139],[-39,-24],[-42,-54],[6,-21],[-26,-68],[12,-59],[-32,-7],[-48,27],[-161,-115],[-98,91],[4,41],[-41,37],[-4,66],[46,39],[-40,110],[21,58],[-12,59],[35,45],[20,3],[-40,87],[-3,42],[37,83],[164,-12],[21,19],[-105,122],[-54,39],[-163,30],[-90,-40],[-77,-3],[-50,-32],[-40,-80],[-46,-33],[-4,-56],[18,-17],[0,37],[38,9],[-26,-65],[-225,-111],[-21,-24],[-38,-86],[19,-51],[-72,-107],[-118,-95],[-34,-125],[11,-35],[37,-9],[23,-24],[-11,-15],[-66,12],[-217,95],[-122,21],[-114,2],[-153,-50],[-166,55],[-208,12],[-121,-12]],[[22148,18479],[-1,144],[33,102],[36,29],[91,26],[70,67],[24,58],[56,63],[22,97],[130,139],[40,98],[14,102]],[[22148,18479],[-195,-41],[-303,-103],[-69,7],[-121,-25],[55,120],[31,31],[58,-69],[16,22],[211,117],[34,48],[25,-5],[-4,-66],[12,-3],[9,64],[35,-9],[13,11],[-44,18],[14,64],[-63,62],[-21,-9],[-66,23],[-23,-24],[-20,8],[-9,-65],[-27,-11],[1,35],[-77,8],[-52,-22],[-22,16],[-34,-13],[-49,10],[-64,74],[-28,13],[38,116],[-6,46],[-73,-138],[-24,-124],[33,-53],[39,-19],[14,-69],[-89,26],[-105,74],[30,148],[-32,61],[-23,2],[-8,41],[1,105],[86,157],[9,80],[-21,8],[-35,-95],[-9,62],[-20,7],[14,-82],[-40,-9],[-6,38],[-15,0],[-2,-44],[-70,4]],[[21057,19107],[-120,199]],[[21127,18842],[20,0],[19,-25],[4,-23],[-17,-16],[-11,-1],[-15,65]],[[21057,19107],[-40,2],[-101,-77],[-26,-63],[29,-13],[-24,-19],[-10,-72],[-159,-218],[-23,-150],[41,-52],[-10,-63],[17,-24],[125,-20],[67,-65],[115,-72],[94,-48],[58,-1],[47,-85],[50,-6],[15,-38],[-14,-64],[-36,11],[-27,-24],[18,-21],[35,-4],[-41,-47],[22,-48],[-3,-60],[-92,-37],[-63,12],[-29,16],[-2,19],[54,2],[50,-26],[-10,38],[20,-14],[12,38],[-15,23],[-59,1],[0,-36],[-52,36],[-26,-21],[-82,-2],[31,64],[-25,6],[-87,-36],[28,-8],[-1,-21],[-90,-59],[-24,-3],[-28,32],[-21,-38],[-57,24],[-26,-47],[14,-29],[-66,16],[-84,-61],[-49,0],[-73,-36],[-57,-52],[-3,-51],[33,-30],[-16,-33],[-38,-15],[-47,48],[-52,-59],[0,-14],[38,-6],[55,-82],[-10,-82],[-22,-9],[-17,10],[-23,38],[-42,-39],[0,-10],[35,-7],[11,-23],[-10,-18],[-26,11],[-19,-42],[-52,-8],[-42,-45],[-50,1],[-54,-78],[-115,-284]],[[19901,16740],[-65,31],[-134,147],[-25,53],[1,37]],[[19678,17008],[43,22],[24,57],[36,10],[65,52],[92,154],[122,12],[-19,67],[36,135],[-3,112],[18,91],[-28,75],[11,30],[-52,111],[-4,54],[37,46],[125,33],[50,60],[-12,51],[-47,14],[-27,43],[-60,5],[-83,46],[-11,21],[9,79],[-31,32],[52,34],[-20,81],[-35,23]],[[19966,18558],[-51,103]],[[19915,18661],[121,48],[47,57],[-19,37],[18,30],[195,-14],[156,52],[59,60],[39,71],[55,292],[-67,125]],[[21270,18172],[26,10],[-10,-29],[-29,-19],[-16,28],[29,10]],[[21268,18232],[30,16],[-10,-26],[-45,-21],[-38,3],[63,28]],[[19915,18661],[-22,70],[-69,47],[-22,36],[-84,14],[-22,21],[-9,95],[-59,119],[34,211],[-28,162],[13,90],[-128,131]],[[18178,20224],[27,-2],[6,-20],[64,-8],[56,35],[-6,22],[43,29],[63,5],[86,59],[-2,23],[217,58],[100,-107],[21,-71],[-10,-24],[-31,19],[-31,-21],[-25,-60],[-83,-102],[0,-35],[28,-6],[3,31],[61,57],[8,-36],[26,-15],[-47,-8],[-2,-29],[96,-50],[35,19],[17,-28],[-31,-73],[6,-35],[51,70],[64,-18],[12,10],[0,44],[-44,-10],[-36,15],[-19,48],[36,30],[84,13],[35,51],[36,23],[-16,-56],[47,-22],[-7,-28]],[[19966,18558],[-11,-21],[-31,-13],[-117,49],[-34,0],[-92,-45],[-26,1],[-121,48],[-71,59]],[[19463,18636],[13,45],[-21,67],[-83,135],[-74,36],[-23,47],[-13,7],[-21,-18],[5,-43],[-39,-11],[-80,50],[-64,81],[-123,24]],[[18940,19056],[-32,31],[-5,27],[89,60],[-1,42],[-27,35],[-53,38],[-60,-1],[-46,42],[-76,8],[-36,23],[-74,132],[-39,6],[-75,-26],[-230,122],[-9,28],[14,109],[29,12],[70,-35],[30,-1],[46,51],[-2,190],[-30,29],[-107,-39],[-66,28],[-65,102],[-7,155]],[[18516,17823],[30,33],[159,43],[169,152],[80,99],[1,61],[27,8],[36,61],[2,91],[-18,87],[14,59]],[[19016,18517],[54,65],[-23,115],[10,194],[-63,36],[-49,52],[-5,77]],[[19463,18636],[-128,-364],[65,-107],[18,-80],[-9,-105],[-37,-29]],[[19372,17951],[-69,-6],[-141,-66],[-79,6],[-409,-106],[-136,11],[-22,33]],[[18699,18055],[55,42],[24,-33],[-50,-35],[-29,26]],[[17419,20121],[17,20],[137,46],[108,61],[81,-22],[317,11],[54,-15],[13,-21],[32,23]],[[19016,18517],[-49,-19],[-60,48],[-83,-6],[0,-45],[-51,-5],[2,42],[-53,-18],[34,-70],[-48,8],[-10,39],[-28,-5],[-3,-42],[-211,-46],[-44,31],[-86,2],[-36,42],[-208,112],[-85,63],[-74,17],[-197,-17],[-27,12],[-46,-24],[-35,9],[-7,40],[-104,-109],[-64,25],[-36,-22],[-5,-39],[-76,7]],[[17326,18547],[18,62],[-9,46],[-77,90],[-5,26],[11,292],[75,70],[76,124],[48,52],[-9,83],[11,74]],[[17465,19466],[62,-21],[40,14],[64,58],[9,54],[-13,77],[-36,52],[-52,136],[-42,186],[-28,61],[-50,38]],[[18390,18369],[39,-31],[3,-21],[-41,-49],[-29,-80],[-42,-37],[-82,-117],[-11,-81],[6,-42],[26,-19],[3,-32],[61,-88],[-190,-78],[-51,-45],[-109,-18],[-3,34],[-38,20],[33,55],[-54,-16],[-47,79],[39,71],[34,-9],[24,12],[119,206],[78,51],[51,95],[83,38],[66,91],[32,11]],[[19678,17008],[-46,60],[-49,12],[-58,-17],[-99,19],[-82,-43],[-39,34],[-7,27],[23,114],[-10,40],[-97,154],[148,228],[104,34],[-21,63],[-48,64],[-25,154]],[[19901,16740],[-20,-59],[-29,-19],[-6,-29],[-31,-15],[2,-24],[33,-19],[-21,-27],[-94,-86],[-115,-43],[-40,-56],[9,-57],[-26,7],[-18,-20],[-10,32],[26,29],[-8,24],[-195,23],[-294,99],[-54,42],[-33,35],[7,44],[-17,32],[-81,60],[23,40],[91,13],[-17,22],[-107,69],[-14,23],[-27,-4],[-46,32],[-48,1],[-4,29],[-51,29],[-35,41],[-32,67],[-52,30],[-91,-23],[12,29],[-14,9],[33,8],[-15,43],[49,42],[-37,8],[-2,33],[25,26],[93,31],[13,27],[1,26],[-14,16],[-90,33],[32,61],[20,12],[-8,50],[97,-2],[5,24],[-37,66],[-26,-2],[-20,74],[-24,26],[-41,31],[-49,13],[37,57]],[[15730,20008],[11,-71],[99,-54],[108,-20],[26,4],[36,61],[129,56],[83,20],[230,-55],[275,21],[148,40],[40,-32],[309,49],[67,32],[19,37],[109,25]],[[17465,19466],[-133,-75],[-93,-2],[-111,-43],[-15,11],[-50,133],[-28,32],[-49,32],[-114,15],[-11,51],[-19,15],[-88,-10],[-43,-48],[-68,-34],[-50,-60],[-103,88],[-250,57],[-28,-26],[-44,-116],[-49,-35],[-17,-78],[-83,-32],[-76,-3],[-22,-27],[-7,-63],[-135,-59],[-39,-39]],[[15740,19150],[-207,30]],[[15533,19180],[30,96],[37,64],[-12,85],[35,29],[129,59],[43,47],[6,189],[32,47],[-115,71],[-40,74],[-34,32],[86,35]],[[13319,18482],[107,5],[171,69],[24,79],[34,7],[154,131],[57,70],[29,-8],[15,62],[264,225],[52,10],[70,39],[15,52],[81,59],[43,88],[134,102],[52,22],[3,22],[163,65],[37,62],[17,99],[-5,25],[-61,36],[-11,19],[18,18],[172,19],[10,8],[-45,26],[76,18],[95,44],[201,19],[6,44],[92,8],[27,49],[20,11],[26,-9],[15,47],[99,-69],[104,36],[5,-32],[123,22],[27,-16],[-86,-33],[-19,-24]],[[15533,19180],[-48,7],[-90,-15],[-67,31],[-61,-20],[-119,15],[-33,-8],[-23,-12],[-140,-184],[-101,-56],[-58,-63],[-2,-19],[59,-49],[-19,-32],[-242,-86],[-129,18],[-52,-37],[-58,14],[-96,-34],[-63,27],[-159,-137],[11,-65],[-42,-77],[-21,-84],[-104,-145],[14,-66]],[[13890,18103],[-90,-79],[-2,-48],[18,-39],[-60,-43],[-24,-59],[-59,24],[-145,-36],[-47,13],[-26,30],[-21,70],[32,71],[-6,22],[-110,23],[-26,32],[-16,111],[53,126],[-33,78],[-9,83]],[[15523,21022],[21,-36],[-19,-47],[-67,-74],[3,104],[19,40],[43,13]],[[15476,21036],[4,10],[31,-18],[-31,-6],[-4,14]],[[15451,21054],[20,-2],[-1,-29],[-44,-13],[-3,-73],[-17,-12],[-38,10],[-15,37],[-30,-8],[21,-51],[-14,-18],[-70,42],[137,122],[54,-5]],[[15357,20854],[17,19],[32,-10],[52,-47],[-78,0],[-23,38]],[[15897,21312],[23,-29],[-4,-87],[-29,-30],[-26,23],[-26,-23],[23,-29],[-23,-30],[-107,12],[-97,73],[6,127],[20,34],[126,80],[1,-21],[42,-16],[71,-84]],[[17326,18547],[-146,33],[12,-28],[95,-24],[-52,-12],[-37,-50],[-99,-47],[22,-11],[30,11],[-19,-39],[-45,-31],[-98,-28],[-55,41],[-81,7],[-88,-38],[-17,-16],[6,-30],[20,-10],[89,69],[53,-2],[16,-21],[0,-31],[-62,-53],[10,-24],[-44,15],[-71,-137],[-175,19],[7,-43],[-48,10],[-39,79],[-59,34],[-11,36],[-10,-13],[-25,10],[-23,-10],[-136,-67],[-29,-33],[-163,-70],[80,104],[-33,17],[-88,-35]],[[16013,18129],[6,79],[-75,134],[-7,99],[-42,104],[-5,150],[-60,90],[-20,58],[-9,213],[-61,94]],[[16013,18129],[-37,-8],[-6,-30],[11,-11],[-15,-36],[-109,-135],[-90,-47],[-18,2],[0,29],[54,17],[15,31],[-16,20],[-70,8],[27,35],[-15,33],[-29,11],[-27,-89],[-73,-62],[30,-23],[11,-36],[-9,-34],[-27,-14],[-37,24],[-103,-74],[-26,13],[-6,102],[63,60],[-1,-66],[30,7],[22,59],[32,6],[-24,33],[-90,29],[-22,-14],[10,-55],[-40,-33],[-225,-31],[-90,-48],[-25,42],[-57,-48],[-56,-24],[24,-49],[-10,-13],[-104,-18],[-71,-46],[-45,-2],[-21,36],[-90,-46],[-15,21],[24,25],[-86,122],[0,72],[42,12],[-8,19],[-45,29],[-84,-22],[-55,32],[-33,-4],[-109,-68],[-137,-156],[28,-87]],[[14180,17629],[-122,50],[-52,54],[-85,196],[-31,174]],[[14659,17420],[-35,19],[-82,-3],[-35,14],[84,77],[-21,44],[55,36],[29,-12],[-21,-24],[21,-85],[40,18],[4,-34],[-16,-42],[-23,-8]],[[14939,17642],[35,-35],[-33,-31],[-4,15],[-74,38],[31,24],[45,-11]],[[15217,17784],[11,12],[6,-16],[-23,-94],[-52,-23],[-50,11],[-6,44],[78,30],[36,36]],[[14329,17832],[10,-40],[-30,-30],[-45,-38],[-25,-9],[-17,11],[47,84],[60,22]],[[14180,17629],[-3,-83],[-56,-60],[-4,-78],[21,-132],[-48,-57],[-70,-34],[-3,-44],[43,-127],[-162,-114],[-22,-1],[5,30],[32,24],[20,49],[13,-17],[33,9],[7,26],[-21,48],[-64,41],[-130,38],[-46,60],[-137,84],[-28,-6],[-33,-42],[22,0],[0,-10],[-72,7],[-3,29],[71,61],[-2,11],[-124,52],[-58,-21],[-22,5],[-85,-36],[-41,0],[-20,19],[-12,-19],[18,-42],[-28,-30],[-17,1],[-8,32],[-17,-9],[-49,16],[-55,42],[-21,-10],[8,-22],[-51,-62],[-31,36],[-17,-29],[-25,5],[18,55],[-23,40],[-87,-137],[-114,-66],[-12,23],[-37,-5],[-15,28],[-58,-36],[-27,40],[9,43],[-64,40],[-32,53],[-103,32],[-33,-59],[-125,-123],[-25,-55],[-55,42],[1,22],[29,-1],[27,108],[-18,33],[11,42],[-13,22],[-39,4],[-25,79],[75,74],[19,52],[-45,127],[-34,41],[22,38],[11,76],[10,20],[64,-7],[20,19],[120,36],[-24,20],[-96,18],[-13,-20],[-19,7],[21,40],[44,36],[40,-23],[-3,-20],[14,-8],[42,1],[57,24],[37,-20],[53,-3],[10,-58],[49,-19],[29,45],[-28,30],[-3,34],[33,-9],[91,23],[43,-52],[-61,23],[-17,-6],[-32,-86],[42,23],[132,19],[18,41],[121,14],[-1,53],[74,80],[-11,35],[43,15],[82,67],[22,28],[9,59],[59,4],[2,75],[28,10],[62,-20],[30,33]],[[14185,16929],[44,-44],[-129,20],[31,36],[54,-12]],[[14173,17063],[-30,-25],[-46,117],[24,41],[37,14],[81,-20],[71,-79],[73,36],[42,0],[22,37],[82,0],[-50,-60],[-27,3],[-52,-20],[-17,-93],[-63,11],[-6,48],[-15,15],[-11,-13],[-20,14],[-21,-40],[-62,0],[-12,14]],[[17536,17662],[40,-2],[41,30],[100,-5],[51,19],[19,33],[6,-20],[-26,-45],[25,4],[56,41],[-30,-53],[0,-38],[-30,-6],[53,-9],[-57,-121],[4,-77],[-20,-49],[8,-53],[18,-22],[20,1],[3,18],[16,5],[39,-74],[51,-30],[-9,-17],[19,-9],[0,-55],[-24,-35],[-37,-18],[-25,-41],[22,-11],[86,2],[0,-11],[-42,-12],[0,-12],[77,22],[17,-10],[-151,-85],[-54,-7],[-14,-29],[-43,-4],[-13,-49],[-37,-7],[-12,-27],[-124,-81],[-81,-30],[-43,-33],[19,-21],[-54,-74],[-62,-16],[2,-52],[-27,-23]],[[17313,16464],[-161,38],[-54,101],[13,45],[-7,39],[-40,28],[-110,12],[-12,122],[-53,111],[-96,2],[-50,-46],[-24,-2],[-142,68],[-106,6],[-146,51]],[[16325,17039],[29,81],[-9,170]],[[16345,17290],[147,108],[71,23],[37,37],[109,14],[80,-48],[49,1],[76,38],[113,29],[43,56],[54,24],[287,12],[73,-13],[18,8],[34,83]],[[16240,17336],[44,38],[31,60],[7,156],[-39,78],[-94,84],[77,-36],[43,-9],[26,9],[28,-28],[44,15],[123,100],[140,71],[39,63],[57,20],[29,-2],[85,-45],[52,11],[54,-13],[30,51],[24,-28],[16,52],[25,3],[22,-30],[12,-88],[37,1],[40,52],[83,-56],[-20,-51],[97,-45],[34,-32],[81,-2],[29,-45],[40,-28]],[[16345,17290],[-22,25],[-83,21]],[[17422,18273],[10,-72],[-41,-146],[-22,25],[-41,0],[0,11],[29,5],[7,15],[-13,11],[-33,-7],[-56,-77],[-28,-6],[-1,82],[-31,15],[-81,-13],[-13,25],[16,11],[5,61],[44,-14],[102,50],[147,24]],[[16428,17994],[16,-44],[-35,-35],[-22,26],[5,22],[36,31]],[[16937,18132],[-17,16],[52,27],[49,-15],[-31,-54],[-53,26]],[[14789,15366],[-33,-3],[-91,52],[20,-24],[-73,13],[-10,-37],[31,-24],[-51,-7],[-49,74],[33,27],[-17,38],[29,40],[-46,84],[-79,20],[-35,-63],[-22,6],[39,88],[67,-29],[30,4],[18,22],[-31,0],[9,49],[-30,34],[40,0],[22,32],[-75,16],[-4,46],[31,10],[-53,45],[-13,-18],[-25,-3],[-6,29],[39,11],[60,-10],[2,-23],[38,-39],[29,21],[-4,31],[17,26],[53,24],[-36,41],[25,22],[-51,-8],[-35,33],[0,25],[62,42],[-59,3],[-101,-21],[-64,27],[9,20],[48,18],[8,61],[-29,-23],[-17,22],[0,40],[26,33],[0,12],[-21,0],[6,14],[35,23],[-61,39],[-56,1],[-34,-16],[-22,11],[-195,-101],[-45,-31],[-30,-46],[-44,12],[13,29],[-129,-74],[-23,8],[128,105],[110,21],[-17,29],[24,15],[77,15],[29,19],[37,-1],[44,38],[181,87],[44,67],[90,92],[154,63],[115,98],[31,72],[-11,101],[34,160],[65,10],[4,44],[23,37],[-4,71],[141,106],[86,22],[17,46],[-6,30],[-47,3],[3,17],[48,-5],[21,38],[136,-157],[69,-164],[76,-47],[30,-3],[148,44],[8,31],[112,29],[57,-14],[84,6],[146,-36],[58,27],[66,76]],[[16325,17039],[-133,-5],[-140,-59],[-305,-26],[-70,-55],[-67,-4],[-109,-198],[-63,-73],[-32,-94],[-4,-71],[-61,-87],[-79,-45],[-198,0],[-18,-10],[-7,-16],[18,-82],[101,-128],[-34,-46],[-115,-72],[-25,-39],[-14,-69],[-53,-37],[-59,-77],[-19,-2],[-62,52],[-21,2],[-7,-31],[52,-118],[1,-41],[35,-79],[6,-68],[-9,-36],[-45,-59]],[[15337,17662],[-55,-29],[-13,11],[12,36],[43,24],[-6,30],[-27,6],[62,69],[30,7],[39,-94],[-6,-35],[-25,-27],[-54,2]],[[14791,17319],[-11,-87],[-52,-27],[-20,35],[83,79]],[[15480,17602],[13,-6],[-12,-19],[-75,-74],[-26,-12],[-16,13],[4,54],[26,7],[-17,40],[11,24],[34,7],[58,-34]],[[17313,16464],[-78,-123],[-46,-149],[-37,-226],[-21,-22],[-53,99],[-54,4],[2,36],[-103,123],[-22,55],[-87,36],[-40,41],[-26,61],[-247,46],[-36,32],[-201,-39],[-28,-24],[-188,-84],[-24,-42],[7,-28],[-23,-23],[-114,-25],[-64,-64],[5,31],[-21,12],[-31,-20],[-57,-68],[-4,-55],[28,-62],[-26,-72],[-58,-56],[15,-50],[-24,-14],[-9,20],[-21,2],[-38,-47],[-103,-157],[1,-43],[-13,-8],[-56,36],[-53,-27],[-25,-66],[-11,-67],[23,-80],[-11,-61],[-19,-12],[-44,3],[-8,-87],[94,-101],[16,-66],[-39,-15],[-27,14],[-42,69],[-64,34],[-34,-7],[-18,-38],[-13,28],[-21,2],[-71,-52],[-31,1],[-52,21],[-70,65],[-72,-19],[-56,-47],[-7,84],[131,194],[-105,-1]],[[14670,15071],[13,-43],[-32,-23],[-15,52],[13,30],[21,-16]],[[10820,16336],[29,66],[74,30],[17,-6],[80,45],[10,22],[-68,-12],[-14,6],[-4,24],[-32,9],[-6,20],[25,29],[46,9],[26,21],[5,40],[58,8],[15,55],[44,-37],[-14,-16],[6,-29],[31,-19],[31,7],[-10,-41],[38,-25],[38,41],[115,13],[26,80],[-14,33],[-76,-49],[-82,41],[-1,44],[45,-43],[33,-4],[62,26],[124,117],[-1,65],[-29,17],[3,22],[34,27],[26,66],[28,-11],[62,56],[129,3],[91,97],[59,-9],[38,20],[110,-7],[-11,-34],[61,9],[30,-52],[25,-12],[44,18],[36,69],[41,34],[47,15],[17,-17],[-39,-104],[10,-42],[-23,0],[10,-30],[-42,-42],[-3,-30],[37,-13],[32,8],[5,-119],[109,-196],[33,-19],[149,-20]],[[12595,16610],[-39,-52],[9,-84],[-48,-71],[-39,-10],[-91,14],[-128,-4],[-65,-33],[-79,-91],[-75,-152],[9,-80],[-25,-108],[45,-159],[-32,-110]],[[12037,15670],[-162,95],[-66,10],[-75,-64],[-110,-22],[-85,-75],[-14,-27],[-1,-60],[-105,-34]],[[11419,15493],[-13,189],[-63,36],[-23,57],[-23,3]],[[11297,15778],[-4,67],[30,35],[22,65],[65,40],[45,10],[47,88],[73,41],[7,69],[-15,66],[-30,16],[-30,-7],[-111,-58],[-74,61],[-163,83],[-339,-18]],[[10482,16112],[19,-66],[37,-24],[-16,63],[8,57],[38,53],[-14,21],[10,13],[-80,51],[-44,50],[26,48],[22,5],[46,-74],[20,-10],[14,11],[-42,67],[-10,57],[27,35],[-2,34],[23,-23],[26,-6],[37,20],[49,-28],[29,-33],[-30,-59],[18,-10],[14,16],[20,-51],[63,-14],[30,21]],[[11297,15778],[-90,13],[-75,69],[-33,-51],[-105,-84],[-35,16],[50,-118],[94,-140],[-5,-35],[-22,-8],[-1,-13]],[[11075,15427],[-220,53],[-205,169],[-15,31],[31,37],[-8,43],[-17,22],[-87,28],[-72,46],[-84,145],[7,35],[77,76]],[[11075,15427],[0,-26],[-23,-24],[-38,-10],[-89,-59],[74,-59],[63,4],[74,54],[97,2],[49,-35],[50,-112],[5,-80],[-38,-78],[15,-28],[-29,-37],[-55,-28],[-57,-2],[-22,-45],[-26,-4],[-8,-22],[-100,-30],[6,46],[-61,39],[-2,76],[38,4],[56,49],[31,34],[-4,33],[-32,18],[5,38],[-18,16],[-79,-7],[-50,11],[-45,-18],[-48,-45],[-64,-22],[-31,-4],[-18,35],[-14,-12],[9,-22],[-92,-146],[-82,-41],[-13,-42],[-76,-74],[-30,11],[-34,-20],[-10,22],[74,46],[49,98],[5,26],[-6,11],[-17,-10],[-9,25],[44,22],[13,-18],[37,53],[-53,-4],[-31,89],[-38,33],[-12,40],[-25,8],[-33,-22],[-18,38],[-52,49],[-26,88],[-48,38],[-9,93],[32,45],[-2,51],[45,107],[59,-26],[22,-58],[23,19],[15,-16],[-32,-51],[5,-50],[37,48],[47,-14],[40,-54],[-25,-115],[-17,59],[-13,0],[4,-63],[21,-17],[6,-29],[-20,-20],[78,-65],[35,26],[22,40],[160,-60],[23,7],[-110,147],[-2,51],[27,66],[-3,37],[-97,83],[-88,-35],[-2,35],[-38,26],[-35,-34],[-43,13],[-20,64],[24,-7],[-4,48],[21,8],[-3,17],[-16,1],[-30,-31],[-8,64],[-20,7],[-9,-89],[-35,5],[-22,-24],[-6,45],[32,8],[5,19],[-19,32],[-33,18],[0,35],[-11,13],[-43,-5],[-42,29],[-39,0],[-18,26],[20,82],[40,20],[-31,66],[14,89],[18,17],[43,-38],[36,5],[44,64],[6,-64],[37,-16],[65,20],[97,-29],[11,-30]],[[9055,14951],[31,-56],[-124,-14],[-3,22],[-34,10],[-21,-10],[-11,-26],[34,-39],[-7,-42],[-26,-26],[-56,56],[-112,-3],[-16,-18],[-79,40],[36,94],[12,5],[10,-62],[21,58],[2,56],[-17,50],[12,30],[-13,29],[29,38],[28,0],[31,-69],[121,58],[8,21],[37,21],[3,-60],[49,-12],[11,-29],[-12,-69],[56,-53]],[[9389,15506],[18,-9],[92,40],[20,-37],[-11,-31],[-115,-85],[-15,-49],[9,-61],[-44,8],[-4,-77],[-29,8],[-8,72],[11,83],[-23,41],[-81,25],[3,23],[59,36],[22,-24],[30,22],[-18,36],[9,70],[25,8],[4,-44],[25,7],[3,94],[24,12],[7,32],[-15,43],[18,73],[14,-14],[-14,-65],[24,-23],[-33,-97],[-7,-117]],[[10087,16253],[10,-79],[-53,-75],[17,-14],[-57,-63],[-12,-62],[-71,-82],[-52,-36],[-56,-15],[-51,17],[11,60],[53,-53],[34,19],[-44,36],[24,44],[35,-4],[-16,67],[47,38],[9,91],[80,18],[20,42],[22,-24],[25,20],[-24,19],[3,26],[46,10]],[[10423,16894],[36,-16],[0,-24],[-24,-23],[-75,-2],[-21,-69],[-67,55],[6,27],[-16,10],[-20,-13],[-16,53],[61,-24],[-41,44],[-5,56],[33,-1],[-8,30],[24,69],[18,-17],[102,-30],[-1,-75],[46,-27],[-32,-23]],[[9716,17788],[7,26],[46,-13],[-44,-51],[10,-51],[-42,-19],[0,-85],[-21,-23],[-10,-50],[-44,-52],[-19,2],[-23,-21],[-46,46],[-28,-14],[13,212],[13,13],[15,145],[13,23],[32,-15],[-7,-49],[79,25],[-10,27],[17,0],[34,-26],[-2,-35],[17,-15]],[[9930,18388],[39,-39],[-21,-76],[-28,-70],[-67,-58],[-35,-51],[8,-51],[-35,-33],[-3,-26],[51,36],[-7,-78],[30,-27],[-61,-78],[-37,-12],[-29,7],[-29,36],[23,16],[37,-12],[3,51],[-19,8],[-28,-32],[-17,1],[6,73],[-33,-33],[9,-29],[-11,-9],[-21,21],[-66,-1],[10,22],[56,14],[-6,101],[13,15],[23,-1],[29,35],[-3,11],[-43,-29],[-7,21],[44,102],[32,27],[-27,44],[-27,-8],[-2,25],[21,30],[31,108],[84,-6],[47,54],[25,5],[-12,13],[8,17],[63,10],[35,-43],[-28,-42],[29,-12],[0,-18],[-11,-28],[-43,-1]],[[9087,15206],[12,-43],[-38,-51],[-65,22],[-4,99],[30,-6],[26,-56],[-17,65],[56,-30]],[[9168,15305],[8,-58],[-27,-65],[-30,28],[-1,26],[-60,48],[16,15],[27,-8],[31,-29],[0,26],[13,-7],[13,34],[10,-10]],[[9282,15350],[-5,-91],[-27,29],[-36,-4],[-23,20],[-5,43],[47,-13],[-24,46],[7,22],[39,-8],[27,-44]],[[9446,16057],[22,-55],[-34,-38],[-80,22],[22,42],[70,29]],[[10087,16400],[27,4],[-8,-31],[-99,-9],[59,59],[15,0],[6,-23]],[[11290,14046],[21,19],[0,32],[110,118],[20,54],[27,21],[12,83],[12,4],[39,-39],[15,20],[-4,71],[46,66],[33,20],[14,44],[-5,45],[-27,25],[30,25],[44,-1],[-52,72],[117,109],[41,72],[-315,-59],[-21,11],[42,45],[137,82],[93,19],[0,13],[-48,47],[-2,31],[30,46],[-31,61],[-187,166],[-44,24],[-18,101]],[[12037,15670],[177,-86],[61,2],[28,82],[-45,71],[-3,72],[102,36],[70,-28],[76,-69],[104,-170],[39,-97],[18,-143],[24,-49],[94,-78]],[[12782,15213],[-81,-21],[-43,-30],[-49,-104],[-148,-183],[-27,-97],[-74,-20],[-37,-54],[-28,-83],[-6,-48],[20,-67],[62,-73],[52,-119],[-11,-46],[-47,-73],[43,-110],[-4,-50],[-35,-4],[-72,22],[-104,-90],[-62,14],[-111,-54],[-170,-2]],[[11850,13921],[-187,128],[-252,-88],[-47,8],[-74,77]],[[10998,14120],[52,-13],[10,-35],[-41,-110],[-27,-7],[-33,39],[9,30],[-34,78],[15,34],[49,-16]],[[11389,14664],[72,25],[18,-25],[-52,-33],[-64,-169],[-46,-39],[-13,87],[-45,-26],[-126,-25],[-44,72],[9,35],[44,15],[65,59],[111,51],[21,-7],[10,-24],[40,4]],[[11009,14725],[44,-43],[15,-73],[14,-189],[-8,-61],[-19,-27],[-50,-24],[-37,-79],[-43,-23],[-46,-56],[-58,-37],[-64,-16],[21,109],[-77,-26],[4,26],[85,72],[55,6],[17,18],[-52,12],[-32,-13],[-27,15],[-18,33],[-4,59],[28,39],[-9,28],[8,35],[54,103],[-41,90],[61,-26],[147,51],[32,-3]],[[11136,14293],[34,-26],[-35,-42],[-43,-18],[3,60],[41,26]],[[11445,14815],[7,-59],[-8,-20],[-32,-10],[4,-16],[-28,21],[3,43],[-19,34],[23,36],[35,13],[25,-17],[-10,-25]],[[12595,16610],[85,-14],[41,-40],[128,-13],[76,12],[89,88],[35,63],[34,16],[105,12],[57,-27],[61,-1],[34,-46],[61,-108],[16,-71],[-17,-48],[13,-50],[-43,-92],[-5,-40],[-13,-6],[-59,29],[-28,-11],[-9,-75],[-51,-16],[-7,-28],[-61,-5],[-36,35],[-41,-5],[-12,-40],[19,-119],[57,-32],[98,-4],[64,33],[70,-31],[16,28],[170,-46],[95,43],[28,-4],[-48,-89],[1,-27],[-63,-54],[-32,-74],[50,-26],[40,28],[65,-7],[-65,-54],[-8,-21],[26,-13],[16,8],[58,-20],[8,42],[12,1],[24,-45],[28,-12],[23,15],[7,40],[27,-49],[-6,-23],[-122,-7],[-35,-62],[-5,-51],[48,-41],[22,-1],[15,-26],[30,10],[29,-20],[19,9],[5,-17],[32,30],[71,-14],[4,-18],[-30,5],[-59,-22],[-47,-35],[-19,-26],[27,-31],[-68,-78],[65,4],[-2,-34],[-52,-31],[-22,1],[-29,-27],[-71,9],[-16,-91]],[[13618,15053],[-50,4],[-46,133],[-73,23],[-52,-15],[-48,-85],[-160,-10],[-97,-30],[-38,29],[2,59],[-38,39],[-43,3],[-44,-21],[-59,-5],[-40,5],[-50,31]],[[13618,15053],[-19,-25],[-6,-56],[-12,-7],[-39,37],[-78,-96],[-6,-49],[-27,-47],[-30,-18],[-32,3],[-40,-89],[20,-42],[36,-5],[26,-30],[-29,-33],[-33,-8],[-54,15],[-5,-35],[49,-63],[-85,-46],[-21,-103],[-41,-59],[-221,-754],[13,-97],[18,-31],[43,-15],[-32,-60],[-37,-196],[7,-54],[-67,-61],[-32,-66],[-8,-39],[13,-63],[-27,-29],[-19,-97],[-39,-83],[-10,-9],[-20,13],[10,23],[-90,-12],[-24,12],[-11,60],[-46,58],[-52,-4],[-43,33]],[[12518,12826],[55,95],[0,109],[-46,46],[-75,9],[-91,34],[-47,69],[-22,84],[-56,65],[-116,53],[-20,60],[8,81],[-12,31],[-137,118],[-127,199],[18,42]],[[12518,12826],[-63,-12],[-80,-44],[-43,-67],[-23,-68],[138,-61],[1,-34],[-46,-48],[28,-11],[49,22],[11,-16],[-109,-96],[-80,-7],[-2,-38],[-41,-77],[-60,-61],[-226,-77],[-38,-38],[-64,-17],[-72,-74],[-31,-3],[9,117],[120,92],[34,115],[-16,31],[40,68],[14,57],[9,123],[-73,161],[-67,42],[-17,46],[20,77],[-15,30],[-90,16],[-59,33],[-11,22],[35,46],[37,18],[76,-5],[36,-9],[16,-30],[1,-60],[40,-7],[42,36],[34,56],[18,69],[-9,65],[-43,40],[-59,-3],[-79,30],[-63,-19],[-48,-57],[-17,-78],[-52,-66],[-59,-155],[-20,-106],[88,-245],[44,-22],[32,-47],[56,-7],[-31,-150],[-55,-25],[-27,-30],[-19,21],[-56,-9],[-31,23],[-33,92],[-67,39],[-234,8],[-115,-13],[-45,121],[-20,22],[41,-5],[2,21],[-57,71],[-78,56],[66,24],[51,-18],[49,-54],[99,112],[37,86],[26,122],[-15,43],[20,37],[-19,61],[-100,139],[-115,67],[-19,55],[28,80],[69,-28],[-58,69],[27,48],[8,78],[-23,74],[-47,48],[-2,33],[47,55],[0,42],[-36,37],[41,48],[63,23],[46,-58],[30,9],[51,40],[20,59]],[[10434,13406],[25,-96],[-36,-28],[-71,-150],[-51,-41],[-56,37],[-6,31],[32,13],[22,58],[39,54],[57,24],[45,98]],[[10330,9616],[47,12],[12,-28],[-15,-41],[-35,-28],[-9,85]],[[10602,10005],[6,-49],[45,-37],[-10,-11],[-87,9],[-35,44],[-12,41],[28,24],[65,-21]],[[11793,10888],[-8,-61],[-34,-87],[-66,-67],[-41,-30],[-139,-18],[-73,24],[-79,177],[-15,97],[72,8],[66,103],[33,0],[16,19],[153,-98],[60,-17],[55,-50]],[[12368,11711],[15,1],[18,-73],[22,-30],[-26,-23],[12,-124],[-38,-66],[6,-90],[-31,-39],[-3,-56],[-49,-11],[-32,-56],[-27,-111],[20,-33],[-13,-40],[13,-26],[-24,-49],[-85,-12],[-31,-39],[-24,0],[-20,39],[13,55],[-22,129],[29,-11],[91,136],[32,96],[-18,136],[41,52],[29,70],[22,8],[10,77],[70,90]],[[11100,11060],[64,-44],[0,-21],[-33,0],[-13,-20],[-30,-5],[-29,33],[-4,39],[-27,-13],[-48,62],[36,1],[40,-24],[17,10],[27,-18]],[[10142,9255],[-1,31],[26,3],[6,-46],[-31,12]],[[10044,10054],[12,13],[29,-22],[-22,-13],[-19,22]],[[10678,10165],[-4,-21],[-61,34],[13,47],[19,10],[33,-70]],[[10682,11719],[21,-28],[-14,-17],[-35,-10],[-24,11],[-6,33],[37,23],[21,-12]],[[10663,13527],[-7,-73],[-60,-28],[-47,23],[-17,35],[4,24],[-28,-24],[-17,3],[4,31],[33,31],[99,-61],[5,39],[31,0]],[[1335,317],[88,-2],[95,-40],[2,-46],[-96,-147],[-289,47],[-23,20],[24,48],[22,-13],[13,22],[34,-23],[20,7],[42,174],[23,-4],[45,-43]],[[98,463],[20,-8],[3,-18],[-30,-35],[-91,8],[9,39],[17,12],[72,2]],[[2120,656],[-4,-39],[-80,-130],[-49,-219],[-46,-47],[-53,-7],[-56,15],[-28,33],[32,43],[-31,52],[-52,14],[-16,24],[26,7],[32,49],[20,4],[41,-49],[85,9],[43,85],[43,27],[70,136],[23,-7]],[[3733,1007],[59,-23],[40,-43],[-13,-13],[-92,-18],[-128,-3],[-62,14],[24,217],[-22,51],[52,-27],[42,-93],[55,-61],[45,-1]],[[12678,2938],[33,-29],[-37,-70],[-62,18],[1,22],[36,54],[29,5]],[[5902,3781],[-33,-86],[-28,19],[-16,36],[-86,37],[-9,24],[40,30],[70,4],[48,-36],[14,-28]],[[8230,4567],[-12,-29],[12,-29],[-42,-76],[-3,-36],[-17,1],[-82,-120],[-128,-26],[-41,-66],[21,-14],[-12,-34],[-73,-20],[-52,14],[-110,-128],[-50,-20],[-6,-28],[-145,-17],[-20,-29],[39,-33],[21,-96],[63,-75],[-27,-8],[-93,33],[-19,-13],[-88,-176],[7,-56],[74,3],[-41,-83],[-32,-32],[-32,6],[-45,-63],[-112,-9],[8,66],[-32,123],[3,41],[31,-4],[29,32],[35,81],[27,-4],[20,27],[16,55],[-27,115],[-2,79],[13,17],[113,14],[38,72],[163,77],[35,57],[-7,54],[-94,25],[-13,20],[-11,131],[166,-3],[21,-22],[-19,-48],[11,-25],[29,-7],[65,17],[82,52],[-12,30],[12,22],[63,49],[14,46],[22,9],[18,32],[58,36],[43,112],[1,39],[117,-129],[9,-29]],[[8784,5729],[9,-10],[-14,-23],[-64,-45],[-38,-61],[-19,7],[-8,-27],[-81,-24],[-42,20],[-11,40],[13,54],[130,0],[125,69]],[[9223,6359],[55,-44],[-1,-52],[-73,-108],[-45,-25],[-27,9],[-20,63],[-33,11],[-5,24],[12,48],[-31,98],[24,118],[80,40],[28,-35],[36,-147]],[[9692,6904],[44,7],[33,-29],[5,-36],[-40,-14],[-36,38],[-33,-41],[-24,39],[-64,0],[-11,72],[-50,89],[71,9],[-9,-34],[16,-10],[56,8],[-26,-55],[68,-43]],[[10810,7353],[-13,-75],[-40,-71],[-59,-11],[-65,22],[177,135]],[[10318,7509],[22,-32],[-9,-26],[-33,-1],[-114,-49],[-12,-31],[-46,-22],[-42,-75],[-84,-72],[-17,-9],[-61,15],[11,-24],[-11,-20],[-42,-29],[73,-60],[-93,-55],[-8,-38],[-46,7],[-30,-12],[35,-36],[2,-36],[-136,103],[-9,72],[-18,19],[-19,-26],[-21,-1],[-148,63],[26,23],[27,-12],[43,15],[95,-16],[30,51],[-56,1],[-40,35],[55,43],[49,13],[54,52],[75,2],[29,9],[21,38],[29,-12],[28,9],[38,52],[62,-49],[26,65],[142,93],[-15,-78],[42,2],[44,76],[-9,35],[9,13],[22,-2],[16,-25],[14,-58]],[[7426,4458],[2,-50],[-39,-8],[-42,19],[-5,27],[84,12]],[[7708,5088],[-3,-44],[-26,-48],[-36,-38],[-41,-15],[106,145]],[[12730,3073],[49,-6],[10,-19],[-9,-18],[-32,0],[-18,43]],[[6530,4217],[31,-4],[-9,-31],[-43,5],[21,30]],[[8408,5010],[-9,-48],[-26,2],[-53,34],[0,14],[49,31],[24,-7],[15,-26]],[[8076,6457],[8,-38],[-14,14],[-4,28],[10,-4]],[[3452,1120],[21,-52],[-18,-20],[-56,-8],[-27,6],[-16,22],[1,21],[26,9],[9,37],[60,-15]],[[6755,3538],[-25,-107],[-16,29],[5,64],[12,22],[24,-8]],[[925,2738],[-52,-6],[4,19],[27,8],[21,-21]],[[1124,3014],[5,23],[10,-14],[-15,-9]]],"objects":{"jpn":{"type":"GeometryCollection","geometries":[{"arcs":[[[0]],[[1]],[[2]],[[3]],[[4]],[[5]],[[6]]],"type":"MultiPolygon","properties":{"code":"JP-01"}},{"arcs":[[7,8,9]],"type":"Polygon","properties":{"code":"JP-02"}},{"arcs":[[10,11,12,-9]],"type":"Polygon","properties":{"code":"JP-03"}},{"arcs":[[13,14,15,16,-12]],"type":"Polygon","properties":{"code":"JP-04"}},{"arcs":[[17,-10,-13,-17,18]],"type":"Polygon","properties":{"code":"JP-05"}},{"arcs":[[19,-19,-16,20,21]],"type":"Polygon","properties":{"code":"JP-06"}},{"arcs":[[22,23,24,25,26,-21,-15]],"type":"Polygon","properties":{"code":"JP-07"}},{"arcs":[[27,28,29,30,31,-24]],"type":"Polygon","properties":{"code":"JP-08"}},{"arcs":[[-25,-32,32]],"type":"Polygon","properties":{"code":"JP-09"}},{"arcs":[[-26,-33,-31,33,34,35]],"type":"Polygon","properties":{"code":"JP-10"}},{"arcs":[[-30,36,37,38,39,-34]],"type":"Polygon","properties":{"code":"JP-11"}},{"arcs":[[40,41,-37,-29]],"type":"Polygon","properties":{"code":"JP-12"}},{"arcs":[[[42,43,44,-38,-42]],[[45]],[[46]],[[47]],[[48]],[[49]],[[50]],[[51]],[[52]],[[53]],[[54]],[[55]],[[56]],[[57]],[[58]],[[59]],[[60]],[[61]]],"type":"MultiPolygon","properties":{"code":"JP-13"}},{"arcs":[[62,63,64,-44]],"type":"Polygon","properties":{"code":"JP-14"}},{"arcs":[[[65,-22,-27,-36,66,67]],[[68]]],"type":"MultiPolygon","properties":{"code":"JP-15"}},{"arcs":[[69,-68,70,71,72]],"type":"Polygon","properties":{"code":"JP-16"}},{"arcs":[[[73,-73,74,75]],[[76]]],"type":"MultiPolygon","properties":{"code":"JP-17"}},{"arcs":[[77,-76,78,79,80]],"type":"Polygon","properties":{"code":"JP-18"}},{"arcs":[[-39,-45,-65,81,82]],"type":"Polygon","properties":{"code":"JP-19"}},{"arcs":[[-35,-40,-83,83,84,85,-71,-67]],"type":"Polygon","properties":{"code":"JP-20"}},{"arcs":[[-86,86,87,88,-79,-75,-72]],"type":"Polygon","properties":{"code":"JP-21"}},{"arcs":[[89,90,-84,-82,-64]],"type":"Polygon","properties":{"code":"JP-22"}},{"arcs":[[[91,92,-87,-85,-91]],[[93]]],"type":"MultiPolygon","properties":{"code":"JP-23"}},{"arcs":[[[94,95,96,97,98,-88,-93]],[[99]],[[100]]],"type":"MultiPolygon","properties":{"code":"JP-24"}},{"arcs":[[-89,-99,101,-80]],"type":"Polygon","properties":{"code":"JP-25"}},{"arcs":[[102,-81,-102,-98,103,104,105]],"type":"Polygon","properties":{"code":"JP-26"}},{"arcs":[[[106,107,-105,108,109]],[[110]]],"type":"MultiPolygon","properties":{"code":"JP-27"}},{"arcs":[[[111,-106,-108,112,113,114]],[[115]]],"type":"MultiPolygon","properties":{"code":"JP-28"}},{"arcs":[[-97,116,-109,-104]],"type":"Polygon","properties":{"code":"JP-29"}},{"arcs":[[117,-110,-117,-96]],"type":"Polygon","properties":{"code":"JP-30"}},{"arcs":[[118,-115,119,120,121]],"type":"Polygon","properties":{"code":"JP-31"}},{"arcs":[[[122,-122,123,124]],[[125]],[[126]],[[127]],[[128]],[[129]]],"type":"MultiPolygon","properties":{"code":"JP-32"}},{"arcs":[[130,131,-120,-114]],"type":"Polygon","properties":{"code":"JP-33"}},{"arcs":[[[132,133,-124,-121,-132]],[[134]],[[135]],[[136]],[[137]]],"type":"MultiPolygon","properties":{"code":"JP-34"}},{"arcs":[[[138,-125,-134]],[[139]],[[140]]],"type":"MultiPolygon","properties":{"code":"JP-35"}},{"arcs":[[141,142,143,144]],"type":"Polygon","properties":{"code":"JP-36"}},{"arcs":[[[145,-145,146]],[[147]],[[148]],[[149]]],"type":"MultiPolygon","properties":{"code":"JP-37"}},{"arcs":[[[150,-147,-144,151]],[[152]],[[153]],[[154]]],"type":"MultiPolygon","properties":{"code":"JP-38"}},{"arcs":[[[155,-152,-143]],[[156]]],"type":"MultiPolygon","properties":{"code":"JP-39"}},{"arcs":[[157,158,159,160,161]],"type":"Polygon","properties":{"code":"JP-40"}},{"arcs":[[162,-162,163,164]],"type":"Polygon","properties":{"code":"JP-41"}},{"arcs":[[[165,-165]],[[166]],[[167]],[[168]],[[169]],[[170]],[[171]],[[172]],[[173]],[[174]],[[175]],[[176]]],"type":"MultiPolygon","properties":{"code":"JP-42"}},{"arcs":[[[177,-160,178,179,180]],[[181]],[[182]],[[183]],[[184]],[[185]]],"type":"MultiPolygon","properties":{"code":"JP-43"}},{"arcs":[[186,187,-179,-159]],"type":"Polygon","properties":{"code":"JP-44"}},{"arcs":[[188,189,-180,-188]],"type":"Polygon","properties":{"code":"JP-45"}},{"arcs":[[[190,-181,-190]],[[191]],[[192]],[[193]],[[194]],[[195]],[[196]],[[197]],[[198]],[[199]],[[200]],[[201]]],"type":"MultiPolygon","properties":{"code":"JP-46"}},{"arcs":[[[202]],[[203]],[[204]],[[205]],[[206]],[[207]],[[208]],[[209]],[[210]],[[211]],[[212]],[[213]],[[214]],[[215]],[[216]],[[217]],[[218]],[[219]],[[220]],[[221]],[[222]],[[223]]],"type":"MultiPolygon","properties":{"code":"JP-47"}}]}}}